NORAD_CAT_ID,OBJECT_NAME,OBJECT_TYPE,EPOCH,MEAN_MOTION,ECCENTRICITY,INCLINATION,RA_OF_ASC_NODE,ARG_OF_PERICENTER,MEAN_ANOMALY,BSTAR,MEAN_MOTION_DOT,MEAN_MOTION_DDOT,TLE_LINE0,TLE_LINE1,TLE_LINE2,SEMIMAJOR_AXIS,PERIOD,APOGEE,PERIGEE,DECAYED
52607.0,STARLINK-3947,PAYLOAD,2024-07-18 22:33:26,15.08868405,0.0001293,53.2174,92.023,132.5526,227.5575,-0.0001623,-2.872e-05,0.0,0 STARLINK-3947,1 52607U 22052K   24200.93988759 -.00002872  00000-0 -16230-3 0  9993,2 52607  53.2174  92.0230 0001293 132.5526 227.5575 15.08868405120381,6917.794,95.436,540.553,538.764,0.0
52607.0,STARLINK-3947,PAYLOAD,2024-07-19 01:44:12,15.08855484,0.0001125,53.217,91.4274,100.7623,259.3496,1.982e-06,-2.56e-06,0.0,0 STARLINK-3947,1 52607U 22052K   24201.07237140 -.00000256  00000-0  19820-5 0  9993,2 52607  53.2170  91.4274 0001125 100.7623 259.3496 15.08855484120789,6917.833,95.437,540.476,538.92,0.0
52607.0,STARLINK-3947,PAYLOAD,2024-07-19 09:41:08,15.08852053,0.0001086,53.2172,89.9406,100.3896,259.7219,-5.333e-05,-1.137e-05,0.0,0 STARLINK-3947,1 52607U 22052K   24201.40357296 -.00001137  00000-0 -53330-4 0  9998,2 52607  53.2172  89.9406 0001086 100.3896 259.7219 15.08852053120454,6917.844,95.437,540.46,538.957,0.0
52607.0,STARLINK-3947,PAYLOAD,2024-07-19 20:48:51,15.08826487,0.0001198,53.2173,87.859,66.0966,294.0152,0.00018765,2.699e-05,0.0,0 STARLINK-3947,1 52607U 22052K   24201.86726639  .00002699  00000-0  18765-3 0  9993,2 52607  53.2173  87.8590 0001198  66.0966 294.0152 15.08826487120906,6917.922,95.438,540.615,538.958,0.0
52607.0,STARLINK-3947,PAYLOAD,2024-07-19 22:24:14,15.08836296,0.0001402,53.2179,87.5637,72.4207,287.6938,0.00010293,1.35e-05,0.0,0 STARLINK-3947,1 52607U 22052K   24201.93350442  .00001350  00000-0  10293-3 0  9997,2 52607  53.2179  87.5637 0001402  72.4207 287.6938 15.08836296120536,6917.892,95.438,540.727,538.787,0.0
52607.0,STARLINK-3947,PAYLOAD,2024-07-19 23:59:36,15.0884995,0.0001033,53.2174,87.2653,75.3886,284.7221,0.00020541,2.984e-05,0.0,0 STARLINK-3947,1 52607U 22052K   24201.99973192  .00002984  00000-0  20541-3 0  9997,2 52607  53.2174  87.2653 0001033  75.3886 284.7221 15.08849950120928,6917.85,95.437,540.43,539.0,0.0
52607.0,STARLINK-3947,PAYLOAD,2024-07-20 09:31:56,15.08840202,0.0001052,53.2173,85.4812,79.323,280.788,8.4614e-05,1.059e-05,0.0,0 STARLINK-3947,1 52607U 22052K   24202.39718137  .00001059  00000-0  84614-4 0  9992,2 52607  53.2173  85.4812 0001052  79.3230 280.7880 15.08840202120986,6917.88,95.438,540.473,539.017,0.0
52607.0,STARLINK-3947,PAYLOAD,2024-07-20 22:15:01,15.08839212,9.48e-05,53.2179,83.1007,100.1287,259.9812,0.00017876,2.558e-05,0.0,0 STARLINK-3947,1 52607U 22052K   24202.92710120  .00002558  00000-0  17876-3 0  9995,2 52607  53.2179  83.1007 0000948 100.1287 259.9812 15.08839212120680,6917.883,95.438,540.404,539.092,0.0
52607.0,STARLINK-3947,PAYLOAD,2024-07-21 01:25:46,15.08858343,0.000111,53.2172,82.5067,92.2331,267.8788,0.00011479,1.54e-05,0.0,0 STARLINK-3947,1 52607U 22052K   24203.05957115  .00001540  00000-0  11479-3 0  9990,2 52607  53.2172  82.5067 0001110  92.2331 267.8788 15.08858343121086,6917.824,95.436,540.457,538.921,0.0
52607.0,STARLINK-3947,PAYLOAD,2024-07-21 20:30:25,15.08838412,0.0001652,53.2181,78.9321,64.851,295.2653,6.1278e-05,6.87e-06,0.0,0 STARLINK-3947,1 52607U 22052K   24203.85446499  .00000687  00000-0  61278-4 0  9990,2 52607  53.2181  78.9321 0001652  64.8510 295.2653 15.08838412121208,6917.885,95.438,540.893,538.607,0.0
52607.0,STARLINK-3947,PAYLOAD,2024-07-21 22:05:48,15.08848692,0.0001346,53.2177,78.6376,90.2752,269.8394,-3.8952e-05,-9.08e-06,0.0,0 STARLINK-3947,1 52607U 22052K   24203.92070052 -.00000908  00000-0 -38952-4 0  9997,2 52607  53.2177  78.6376 0001346  90.2752 269.8394 15.08848692120839,6917.854,95.437,540.65,538.788,0.0
52607.0,STARLINK-3947,PAYLOAD,2024-07-22 01:16:34,15.08851344,0.0001323,53.2174,78.0389,78.2525,281.8616,-1.4814e-05,-5.24e-06,0.0,0 STARLINK-3947,1 52607U 22052K   24204.05317738 -.00000524  00000-0 -14814-4 0  9992,2 52607  53.2174  78.0389 0001323  78.2525 281.8616 15.08851344121237,6917.846,95.437,540.626,538.795,0.0
52607.0,STARLINK-3947,PAYLOAD,2024-07-22 15:35:03,15.08842993,0.0001615,53.2184,75.3625,119.8019,240.3134,-7.025e-05,-1.406e-05,0.0,0 STARLINK-3947,1 52607U 22052K   24204.64934194 -.00001406  00000-0 -70250-4 0  9994,2 52607  53.2184  75.3625 0001615 119.8019 240.3134 15.08842993121320,6917.871,95.437,540.853,538.619,0.0
52607.0,STARLINK-3947,PAYLOAD,2024-07-22 21:56:35,15.08848722,0.0001441,53.2171,74.1833,82.9494,277.1662,-3.7371e-05,-8.83e-06,0.0,0 STARLINK-3947,1 52607U 22052K   24204.91429964 -.00000883  00000-0 -37371-4 0  9993,2 52607  53.2171  74.1833 0001441  82.9494 277.1662 15.08848722120989,6917.854,95.437,540.716,538.722,0.0
52607.0,STARLINK-3947,PAYLOAD,2024-07-24 00:58:09,15.08834545,0.0001475,53.2157,69.1331,78.9934,281.1224,8.5339e-05,1.07e-05,0.0,0 STARLINK-3947,1 52607U 22052K   24206.04038790  .00001070  00000-0  85339-4 0  9996,2 52607  53.2157  69.1331 0001475  78.9934 281.1224 15.08834545121530,6917.897,95.438,540.782,538.742,0.0
52607.0,STARLINK-3947,PAYLOAD,2024-07-25 13:32:01,15.08840113,0.0001615,53.2164,62.2908,74.0022,286.1148,1.8273e-05,3e-08,0.0,0 STARLINK-3947,1 52607U 22052K   24207.56390679  .00000003  00000-0  18273-4 0  9999,2 52607  53.2164  62.2908 0001615  74.0022 286.1148 15.08840113121766,6917.88,95.438,540.862,538.628,0.0
52607.0,STARLINK-3947,PAYLOAD,2024-07-25 23:04:20,15.08834108,0.000157,53.2154,60.5052,76.2584,283.8582,-7.2372e-06,-4.03e-06,0.0,0 STARLINK-3947,1 52607U 22052K   24207.96135325 -.00000403  00000-0 -72372-5 0  9995,2 52607  53.2154  60.5052 0001570  76.2584 283.8582 15.08834108121823,6917.898,95.438,540.85,538.677,0.0
52607.0,STARLINK-3947,PAYLOAD,2024-07-27 00:30:29,15.08855947,0.0001466,53.219,55.7466,80.2519,279.8639,0.00021599,3.153e-05,0.0,0 STARLINK-3947,1 52607U 22052K   24209.02117421  .00003153  00000-0  21599-3 0  9997,2 52607  53.2190  55.7466 0001466  80.2519 279.8639 15.08855947121984,6917.832,95.437,540.711,538.682,0.0
52607.0,STARLINK-3947,PAYLOAD,2024-07-27 06:52:03,15.08828786,0.0001434,53.2161,54.5561,83.9824,276.1331,1.3285e-05,-7.7e-07,0.0,0 STARLINK-3947,1 52607U 22052K   24209.28615568 -.00000077  00000-0  13285-4 0  9997,2 52607  53.2161  54.5561 0001434  83.9824 276.1331 15.08828786122025,6917.915,95.438,540.772,538.788,0.0
52607.0,STARLINK-3947,PAYLOAD,2024-07-27 21:10:31,15.08848324,0.0001157,53.2184,51.8781,90.2538,269.8586,9.0018e-05,1.145e-05,0.0,0 STARLINK-3947,1 52607U 22052K   24209.88230421  .00001145  00000-0  90018-4 0  9999,2 52607  53.2184  51.8781 0001157  90.2538 269.8586 15.08848324121737,6917.855,95.437,540.52,538.92,0.0
52607.0,STARLINK-3947,PAYLOAD,2024-07-28 06:42:50,15.08843038,0.00013,53.2171,50.0956,86.5402,273.5739,1.7522e-05,-9e-08,0.0,0 STARLINK-3947,1 52607U 22052K   24210.27974972 -.00000009  00000-0  17522-4 0  9998,2 52607  53.2171  50.0956 0001300  86.5402 273.5739 15.08843038122174,6917.871,95.437,540.635,538.837,0.0
52607.0,STARLINK-3947,PAYLOAD,2024-07-28 21:01:18,15.08851714,0.0001375,53.2178,47.4185,88.5113,271.6037,-7.3715e-05,-1.461e-05,0.0,0 STARLINK-3947,1 52607U 22052K   24210.87590840 -.00001461  00000-0 -73715-4 0  9992,2 52607  53.2178  47.4185 0001375  88.5113 271.6037 15.08851714121885,6917.845,95.437,540.661,538.758,0.0
52607.0,STARLINK-3947,PAYLOAD,2024-07-29 06:33:37,15.08847894,0.0001424,53.2175,45.6315,91.8908,268.2248,-9.7649e-05,-1.842e-05,0.0,0 STARLINK-3947,1 52607U 22052K   24211.27334848 -.00001842  00000-0 -97649-4 0  9996,2 52607  53.2175  45.6315 0001424  91.8908 268.2248 15.08847894121948,6917.856,95.437,540.706,538.736,0.0
52607.0,STARLINK-3947,PAYLOAD,2024-07-29 19:16:42,15.08835488,0.0001092,53.2175,43.2516,102.3065,257.805,0.0002018,2.925e-05,0.0,0 STARLINK-3947,1 52607U 22052K   24211.80326903  .00002925  00000-0  20180-3 0  9994,2 52607  53.2175  43.2516 0001092 102.3065 257.8050 15.08835488122401,6917.894,95.438,540.515,539.004,0.0
52607.0,STARLINK-3947,PAYLOAD,2024-07-29 22:27:28,15.08849773,0.0001376,53.2179,42.6572,111.3488,248.7652,2.905e-05,1.75e-06,0.0,0 STARLINK-3947,1 52607U 22052K   24211.93574512  .00000175  00000-0  29050-4 0  9990,2 52607  53.2179  42.6572 0001376 111.3488 248.7652 15.08849773122043,6917.851,95.437,540.667,538.764,0.0
52607.0,STARLINK-3947,PAYLOAD,2024-07-30 12:45:57,15.08833403,0.0001301,53.2182,39.9835,107.9548,252.1586,1.8873e-05,1.2e-07,0.0,0 STARLINK-3947,1 52607U 22052K   24212.53191584  .00000012  00000-0  18873-4 0  9992,2 52607  53.2182  39.9835 0001301 107.9548 252.1586 15.08833403122514,6917.901,95.438,540.666,538.866,0.0
52607.0,STARLINK-3947,PAYLOAD,2024-07-30 19:07:29,15.08840177,0.0001455,53.2182,38.7955,95.5794,264.5364,8.3636e-05,1.043e-05,0.0,0 STARLINK-3947,1 52607U 22052K   24212.79687167  .00001043  00000-0  83636-4 0  9991,2 52607  53.2182  38.7955 0001455  95.5794 264.5364 15.08840177122178,6917.88,95.438,540.751,538.738,0.0
52607.0,STARLINK-3947,PAYLOAD,2024-07-31 12:36:44,15.08836875,0.0001257,53.2172,35.5257,86.8493,273.2643,2.0444e-05,3.7e-07,0.0,0 STARLINK-3947,1 52607U 22052K   24213.52551581  .00000037  00000-0  20444-4 0  9993,2 52607  53.2172  35.5257 0001257  86.8493 273.2643 15.08836875122285,6917.89,95.438,540.625,538.885,0.0
52607.0,STARLINK-3947,PAYLOAD,2024-07-31 18:58:16,15.08840203,0.0001235,53.218,34.3353,93.7269,266.3864,4.2038e-05,3.81e-06,0.0,0 STARLINK-3947,1 52607U 22052K   24213.79047347  .00000381  00000-0  42038-4 0  9997,2 52607  53.2180  34.3353 0001235  93.7269 266.3864 15.08840203122325,6917.88,95.438,540.599,538.89,0.0
52607.0,STARLINK-3947,PAYLOAD,2024-08-01 12:27:31,15.08828906,0.0001236,53.2173,31.063,100.4292,259.6839,0.00025084,3.705e-05,0.0,0 STARLINK-3947,1 52607U 22052K   24214.51911511  .00003705  00000-0  25084-3 0  9995,2 52607  53.2173  31.0630 0001236 100.4292 259.6839 15.08828906122819,6917.914,95.438,540.634,538.924,0.0
